43072,IRIDIUM 116,2017,100.4,860.0,+,86.39,Active,1,LEO,USA,USA,Commercial/Government,Communications,Falcon,1 43072U 17083C   24253.43758124 -.00000043  00000+0 -22376-4 0  9997,2 43072  86.3952 231.8327 0002097  89.3014 270.8422 14.34218015351610,14.34218015,0.0002097,LEO
43073,IRIDIUM 130,2017,100.4,860.0,+,86.4,Active,1,LEO,USA,USA,Commercial/Government,Communications,Falcon,1 43073U 17083D   24253.47563944  .00000033  00000+0  47136-5 0  9995,2 43073  86.3957 232.0287 0002157  89.6806 270.4637 14.34216978351567,14.34216978,0.0002157,LEO
43074,IRIDIUM 151,2017,100.4,860.0,+,86.39,Active,1,LEO,USA,USA,Commercial/Government,Communications,Falcon,1 43074U 17083E   24253.45026844  .00000095  00000+0  26757-4 0  9990,2 43074  86.3951 231.8701 0002457  87.7795 272.3682 14.34217905351583,14.34217905,0.0002457,LEO
43075,IRIDIUM 134,2017,100.4,860.0,+,86.39,Active,1,LEO,USA,USA,Commercial/Government,Communications,Falcon,1 43075U 17083F   24253.48832464  .00000056  00000+0  12884-4 0  9990,2 43075  86.3951 231.8537 0002184  91.7856 268.3590 14.34217220351551,14.3421722,0.0002184,LEO
43076,IRIDIUM 137,2017,100.4,860.0,+,86.4,Active,1,LEO,USA,USA,Commercial/Government,Communications,Falcon,1 43076U 17083G   24253.50101111  .00000647  00000+0  22411-3 0  9994,2 43076  86.3955 231.9277 0002699  94.2013 265.9491 14.34217040351623,14.3421704,0.0002699,LEO
43077,IRIDIUM 141,2017,100.4,860.0,+,86.39,Active,1,LEO,USA,USA,Commercial/Government,Communications,Falcon,1 43077U 17083H   24253.49466764  .00000599  00000+0  20699-3 0  9993,2 43077  86.3949 231.7979 0002267  83.3366 276.8087 14.34218489351625,14.34218489,0.0002267,LEO
43078,IRIDIUM 153,2017,100.4,860.0,+,86.4,Active,1,LEO,USA,USA,Commercial/Government,Communications,Falcon,1 43078U 17083J   24253.58636351  .00001555  00000+0  54792-3 0  9999,2 43078  86.4021 200.2632 0002519  68.2167 291.9296 14.34226543352740,14.34226543,0.0002519,LEO
43079,IRIDIUM 131,2017,100.4,860.0,+,86.4,Active,1,LEO,USA,USA,Commercial/Government,Communications,Falcon,1 43079U 17083K   24253.48198181  .00000853  00000+0  29766-3 0  9996,2 43079  86.3954 231.9462 0002477  88.2356 271.9123 14.34218696351557,14.34218696,0.0002477,LEO
